ONEWEB-0627             
1 55168U 23004AE  23346.06992695 -.00043678  00000+0 -11255+0 0  9990
2 55168  87.9181 188.4188 0002238  69.3979 290.7393 13.17960578 46670
ONEWEB-0628             
1 55169U 23004AF  23346.04967702  .00000402  00000+0  10831-2 0  9998
2 55169  87.8999 173.2503 0001673  69.5492 290.5816 13.12442352 47606
ONEWEB-0629             
1 55170U 23004AG  23346.14134223 -.00000031  00000+0 -11367-3 0  9991
2 55170  87.9204 188.3986 0001434  61.7536 298.3740 13.17646956 46688
ONEWEB-0631             
1 55171U 23004AH  23346.45062245  .00000078  00000+0  16514-3 0  9998
2 55171  87.9221 157.9807 0002415 101.5428 258.5975 13.18682499 48723
ONEWEB-0709             
1 55172U 23004AJ  23346.12409462  .00000235  00000+0  62848-3 0  9995
2 55172  87.8993 203.5418 0002130  99.9008 260.2360 13.11417737 45553
ONEWEB-0710             
1 55173U 23004AK  23346.13500205  .00000091  00000+0  20073-3 0  9998
2 55173  87.9204 188.4096 0001736  89.9078 270.2252 13.17646935 46686
ONEWEB-0711             
1 55174U 23004AL  23345.63869727  .00000114  00000+0  28507-3 0  9996
2 55174  87.9011 203.6118 0002224  64.9269 295.2089 13.11416326 45447
ONEWEB-0713             
1 55175U 23004AM  23346.11433748 -.00000200  00000+0 -60092-3 0  9994
2 55175  87.8989 203.5228 0001688  68.8835 291.2474 13.11419565 45494
ONEWEB-0715             
1 55176U 23004AN  23346.10948126 -.00000348  00000+0 -10180-2 0  9990
2 55176  87.8973 203.5251 0001474  69.4692 290.6594 13.11419077 45545
ONEWEB-0716             
1 55177U 23004AP  23346.12867442  .00000002  00000+0 -29095-4 0  9997
2 55177  87.9186 188.4024 0001196  85.0430 275.0838 13.17647671 46680
ONEWEB-0717             
1 55178U 23004AQ  23346.49149669  .00000110  00000+0  25019-3 0  9992
2 55178  87.9204 188.2942 0002491  72.6207 287.5197 13.17649273 46789
ONEWEB-0719             
1 55179U 23004AR  23346.12234903 -.00000003  00000+0 -41609-4 0  9996
2 55179  87.9205 188.3543 0001398  75.6947 284.4340 13.17652028 46685
ONEWEB-0530             
1 55796U 23029A   23345.84251536 -.00000058  00000+0 -17430-3 0  9991
2 55796  87.9200  97.2816 0001837  89.3587 270.7756 13.20872573 39927
ONEWEB-0534             
1 55797U 23029B   23346.36015911  .00000059  00000+0  11402-3 0  9997
2 55797  87.9199  97.1849 0001368 106.6955 253.4329 13.20869883 40680
ONEWEB-0556             
1 55798U 23029C   23345.83620753  .00000090  00000+0  18944-3 0  9998
2 55798  87.9200  97.2834 0000970  74.0426 286.0814 13.20872121 39923
ONEWEB-0562             
1 55799U 23029D   23345.82358977  .00000068  00000+0  13396-3 0  9995
2 55799  87.9200  97.2754 0001780  63.0892 297.0423 13.20871654 39928
ONEWEB-0563             
1 55800U 23029E   23345.81726223 -.00000348  00000+0 -88565-3 0  9993
2 55800  87.9211  97.2916 0001597  81.6147 278.5167 13.20869410 39913
ONEWEB-0564             
1 55801U 23029F   23345.81095225 -.00000676  00000+0 -16928-2 0  9992
2 55801  87.9199  97.2761 0001898  89.3962 270.7389 13.20873029 39923
ONEWEB-0638             
1 55802U 23029G   23345.87976147  .00000181  00000+0  45341-3 0  9991
2 55802  87.8979 112.5431 0000857 108.4995 251.6228 13.14501197 39463
ONEWEB-0639             
1 55803U 23029H   23345.89055123  .00000065  00000+0  12936-3 0  9991
2 55803  87.9192 127.7547 0001523 156.9588 203.1614 13.19725434 38473
ONEWEB-0640             
1 55804U 23029J   23345.88925595  .00000205  00000+0  51709-3 0  9997
2 55804  87.8979 112.5413 0000672 133.0015 227.1171 13.14509217 39452
ONEWEB-0641             
1 55805U 23029K   23345.96164889  .00000167  00000+0  38576-3 0  9992
2 55805  87.9193 127.7276 0001547 120.6811 239.4474 13.19721827 38498
ONEWEB-0642             
1 55806U 23029L   23346.41177944  .00000081  00000+0  17013-3 0  9998
2 55806  87.9197 127.6535 0001988 144.1482 215.9784 13.19725374 38544
ONEWEB-0643             
1 55807U 23029M   23346.39197609 -.00000167  00000+0 -48384-3 0  9998
2 55807  87.8978 112.4157 0002278 126.0420 234.0921 13.14502550 39525
ONEWEB-0644             
1 55808U 23029N   23345.87633523  .00000041  00000+0  69531-4 0  9998
2 55808  87.9196 127.7524 0001808 131.0184 229.1105 13.19726769 38474
ONEWEB-0645             
1 55809U 23029P   23345.94819276  .00000082  00000+0  17166-3 0  9999
2 55809  87.9198 127.7417 0001192 127.4489 232.6753 13.19722412 38481
ONEWEB-0646             
1 55810U 23029Q   23345.90240874  .00000020  00000+0  17643-4 0  9992
2 55810  87.9194 127.7528 0001658 111.6212 248.5097 13.19727739 37773
ONEWEB-0648             
1 55811U 23029R   23345.90355382 -.00000123  00000+0 -36634-3 0  9990
2 55811  87.8983 112.4822 0001725 150.0967 210.0261 13.14502367 38755
ONEWEB-0649             
1 55812U 23029S   23345.94108848  .00000019  00000+0  15523-4 0  9995
2 55812  87.9182 127.7468 0001343 127.5622 232.5633 13.19727481 38502
ONEWEB-0650             
1 55813U 23029T   23345.93634911 -.00000062  00000+0 -18795-3 0  9993
2 55813  87.9196 127.7433 0001710 120.3718 239.7584 13.19723805 38471
ONEWEB-0652             
1 55814U 23029U   23345.88453749  .00000226  00000+0  57483-3 0  9993
2 55814  87.8980 112.4982 0001569 101.9330 258.1975 13.14502888 39414
ONEWEB-0653             
1 55815U 23029V   23346.40147182  .00002659  00000+0  71362-2 0  9997
2 55815  87.9009 112.3705 0001189 111.6195 248.5062 13.14490551 39519
ONEWEB-0654             
1 55816U 23029W   23346.39673905 -.00000017  00000+0 -81304-4 0  9990
2 55816  87.8976 112.3867 0001568  83.3912 276.7396 13.14503198 39531
ONEWEB-0656             
1 55817U 23029X   23346.33489501 -.00000045  00000+0 -14329-3 0  9995
2 55817  87.9199  97.1154 0002257  86.7210 273.4181 13.20877152 40677
ONEWEB-0657             
1 55818U 23029Y   23346.46232470  .00000031  00000+0  44833-4 0  9998
2 55818  87.9196 127.6445 0002579  98.0952 262.0473 13.19727451 38548
ONEWEB-0658             
1 55819U 23029Z   23345.92687549  .00000034  00000+0  52982-4 0  9997
2 55819  87.9205 127.6869 0001673 129.2722 230.8559 13.19727623 37803
ONEWEB-0660             
1 55820U 23029AA  23345.84171722 -.00000180  00000+0 -51894-3 0  9995
2 55820  87.8982 112.4731 0001067 121.4660 238.6574 13.14502190 38751
ONEWEB-0661             
1 55821U 23029AB  23345.87658910  .00000135  00000+0  33025-3 0  9992
2 55821  87.8977 112.5314 0001092 112.7860 247.3385 13.14501064 39439
ONEWEB-0662             
1 55822U 23029AC  23345.91146937 -.00000091  00000+0 -28102-3 0  9992
2 55822  87.8981 112.5327 0001358 123.1877 236.9383 13.14506333 38792
ONEWEB-0663             
1 55823U 23029AD  23345.87407446 -.00000441  00000+0 -11147-2 0  9992
2 55823  87.9204  97.2685 0001387 120.2790 239.8481 13.20871595 40608
ONEWEB-0664             
1 55824U 23029AE  23345.86774488 -.00000874  00000+0 -21774-2 0  9992
2 55824  87.9202  97.2807 0001307  93.9670 266.1613 13.20871705 39924
ONEWEB-0665             
1 55825U 23029AF  23345.87341543  .00000086  00000+0  19623-3 0  9990
2 55825  87.8978 112.5074 0001200 115.6887 244.4367 13.14502196 38769
ONEWEB-0666             
1 55826U 23029AG  23345.86144296  .00000049  00000+0  87646-4 0  9996
2 55826  87.9203  97.2743 0002025  94.9979 265.1386 13.20866249 40618
ONEWEB-0667             
1 55827U 23029AH  23346.38536763  .00002001  00000+0  48800-2 0  9996
2 55827  87.9201  97.1041 0001214 107.7980 252.3286 13.20884363 40671
ONEWEB-0669             
1 55828U 23029AJ  23345.85022090  .00000003  00000+0 -23812-4 0  9990
2 55828  87.9200  97.2492 0001849  75.9847 284.1492 13.20769055 39922
ONEWEB-0670             
1 55829U 23029AK  23345.92732226 -.00000202  00000+0 -58069-3 0  9991
2 55829  87.8984 112.4963 0000895 104.8253 255.2976 13.14500244 39480
ONEWEB-0671             
1 55830U 23029AL  23345.92213223  .00000585  00000+0  14275-2 0  9996
2 55830  87.9193 127.7532 0001515  91.7116 268.4190 13.19730469 37782
ONEWEB-0672             
1 55831U 23029AM  23345.84544456  .00000012  00000+0 -27294-5 0  9997
2 55831  87.9202  97.2326 0001978 102.0492 258.0863 13.20674134 39920
ONEWEB-0673             
1 55832U 23029AN  23345.89842080 -.00000319  00000+0 -82980-3 0  9999
2 55832  87.9192 127.7271 0001533 125.0919 235.0358 13.19727700 37785
ONEWEB-0674             
1 55833U 23029AP  23345.89561121  .00000133  00000+0  32431-3 0  9992
2 55833  87.8978 112.5176 0000967 100.3406 259.7833 13.14506538 39456
ONEWEB-0675             
1 55834U 23029AQ  23345.91423119  .00000016  00000+0  69552-5 0  9996
2 55834  87.9197 127.7482 0002041 108.7134 251.4220 13.19727101 37806
ONEWEB-0720             
1 55835U 23029AR  23345.90633918  .00000106  00000+0  23173-3 0  9993
2 55835  87.9195 127.7533 0001579 134.2708 225.8554 13.19726555 37726
ONEWEB-0537             
1 56046U 23043A   23346.10692652 -.00041854  00000+0 -90623-1 0  9996
2 56046  87.9570  51.4959 0002168  80.6708 279.4675 13.29629627 39063
ONEWEB-0538             
1 56047U 23043B   23346.12404800  .00000030  00000+0  35684-4 0  9993
2 56047  87.9597  51.5074 0001273  93.3246 266.8038 13.29815954 39070
ONEWEB-0546             
1 56048U 23043C   23346.46475373 -.00074165  00000+0 -16275+0 0  9996
2 56048  87.9503  51.4062 0001027  81.0468 279.0786 13.28971158 39110
ONEWEB-0547             
1 56049U 23043D   23345.74839813  .00000022  00000+0  22566-4 0  9994
2 56049  87.9257  66.8153 0002130 115.7904 244.3449 13.21827299 36896
ONEWEB-0548             
1 56050U 23043E   23346.58334491  .00012283  00000+0  29086-1 0  9994
2 56050  87.9359  51.4246 0001215 343.0893 155.6508 13.23163776 39135
ONEWEB-0549             
1 56051U 23043F   23345.74051446  .00000074  00000+0  14754-3 0  9991
2 56051  87.9254  66.8164 0001719 109.4908 250.6412 13.21826687 36894
ONEWEB-0550             
1 56052U 23043G   23346.25777658  .00000108  00000+0  22974-3 0  9990
2 56052  87.9257  66.7282 0001506 104.9973 255.1328 13.21825587 37877
